STARLINK-31795          
1 59645U 24082Q   26068.05831699  .00001819  00000+0  75591-4 0  9997
2 59645  43.0025  84.8034 0001377 283.4360  76.6339 15.27584811105389
FOSSASAT-2E20 (TAT-O)   
1 63003U 25009DN  26068.70855016  .00016337  00000+0  61863-3 0  9998
2 63003  97.3231 146.2859 0002189 347.5575  12.5610 15.26991080121314
